[{"OBJECT_NAME":"VSP ROSE","OBJECT_ID":"2024-043AC","EPOCH":"2026-03-09T21:48:06.922944","MEAN_MOTION":15.27746075,"ECCENTRICITY":0.00099339,"INCLINATION":97.5443,"RA_OF_ASC_NODE":203.927,"ARG_OF_PERICENTER":232.2702,"MEAN_ANOMALY":127.7637,"EPHEMERIS_TYPE":0,"CLASSIFICATION_TYPE":"U","NORAD_CAT_ID":59124,"ELEMENT_SET_NO":999,"REV_AT_EPOCH":11182,"BSTAR":0.00025731354,"MEAN_MOTION_DOT":6.907e-5,"MEAN_MOTION_DDOT":0},{"OBJECT_NAME":"STARLINK-35987","OBJECT_ID":"2025-281N","EPOCH":"2026-03-09T03:23:11.280192","MEAN_MOTION":15.2755869,"ECCENTRICITY":0.00017664,"INCLINATION":43.003,"RA_OF_ASC_NODE":346.3973,"ARG_OF_PERICENTER":282.2881,"MEAN_ANOMALY":77.7773,"EPHEMERIS_TYPE":0,"CLASSIFICATION_TYPE":"U","NORAD_CAT_ID":66860,"ELEMENT_SET_NO":999,"REV_AT_EPOCH":1610,"BSTAR":0.0013311338,"MEAN_MOTION_DOT":0.00036526,"MEAN_MOTION_DDOT":0}]
